HELLAS-SAT 3            
1 42814U 17040A   26155.75106973  .00000164  00000+0  00000+0 0  9997
2 42814   0.0495  47.0102 0004912   2.1633 153.3974  1.00272214 32684
GSAT-17                 
1 42815U 17040B   26155.90025259 -.00000246  00000+0  00000+0 0  9994
2 42815   0.0958  88.8455 0001648 217.2173   4.8806  1.00271289 32667
INTELSAT 35E (IS-35E)   
1 42818U 17041A   26155.91470484 -.00000226  00000+0  00000+0 0  9991
2 42818   0.0160   9.1939 0001974  63.7556 115.2079  1.00274012 32698
COSMOS 2520             
1 42907U 17046A   26155.78794030  .00000149  00000+0  00000+0 0  9999
2 42907   0.0459  86.4379 0001338  42.0777  93.4136  1.00267672 32272
TDRS 13                 
1 42915U 17047A   26155.91929241 -.00000088  00000+0  00000+0 0  9991
2 42915   3.4485   2.4194 0014679 104.2298 106.2133  1.00272496 32226
QZS-3 (MICHIBIKI-3)     
1 42917U 17048A   26155.85322468 -.00000336  00000+0  00000+0 0  9991
2 42917   0.0602 194.1360 0002865 249.1059 244.2516  1.00272004 32137
AMAZONAS 5              
1 42934U 17053A   26155.69449756 -.00000271  00000+0  00000+0 0  9996
2 42934   0.0331 321.4966 0002823  68.7114  51.9642  1.00274619 31926
ASIASAT 9               
1 42942U 17057A   26155.44670296 -.00000348  00000+0  00000+0 0  9992
2 42942   0.0040 352.4544 0002325  75.0267 108.3279  1.00271614 31739
INTELSAT 37E (IS-37E)   
1 42950U 17059A   26155.91799240 -.00000128  00000+0  00000+0 0  9992
2 42950   0.0165  11.3176 0002604  78.5822 115.9498  1.00272095 31947
BSAT-4A                 
1 42951U 17059B   26155.72498777 -.00000338  00000+0  00000+0 0  9996
2 42951   0.0344 351.3581 0004492  75.4748 197.1694  1.00270483 31673
QZS-4 (MICHIBIKI-4)     
1 42965U 17062A   26155.37249061 -.00000321  00000+0  00000+0 0  9998
2 42965  40.1160 343.6465 0744830 271.5298 269.7386  1.00255482 31676
SES-11 (ECHOSTAR 105)   
1 42967U 17063A   26155.90075145 -.00000077  00000+0  00000+0 0  9998
2 42967   0.0181 324.8467 0002872 119.2314  28.5905  1.00271406 31604
KOREASAT 5A             
1 42984U 17067A   26155.81319303 -.00000346  00000+0  00000+0 0  9997
2 42984   0.0209 297.3361 0001048 134.8557 226.9644  1.00270254 31409
ALCOMSAT 1              
1 43039U 17078A   26155.41732284 -.00000174  00000+0  00000+0 0  9993
2 43039   0.0204  42.8693 0002707  20.7799 314.6310  1.00269830 31167
SBIRS GEO-3 (USA 282)   
1 43162U 18009A   26155.81872079  .00000140  00000+0  00000+0 0  9998
2 43162   2.1754  11.5033 0002311  58.7203 318.3830  1.00272870 30727
AL YAH 3                
1 43174U 18012A   26155.41853618 -.00000143  00000+0  00000+0 0  9993
2 43174   1.5186  83.2613 0004373 351.2790 308.9049  1.00272751 30718
SES-14                  
1 43175U 18012B   26155.41307615 -.00000266  00000+0  00000+0 0  9991
2 43175   0.0211  25.8120 0001280  50.2092 278.0489  1.00270794  6894
GOES 17                 
1 43226U 18022A   26155.90387147 -.00000170  00000+0  00000+0 0  9995
2 43226   0.9062  85.9394 0000737   6.9647  36.3448  1.00271536 30302
HISPASAT 30W-6          
1 43228U 18023A   26155.63047396 -.00000204  00000+0  00000+0 0  9995
2 43228   0.0452  40.5622 0006452  24.1077  25.3803  1.00271231 30280
SUPERBIRD-B3            
1 43271U 18033A   26155.88237803 -.00000080  00000+0  00000+0 0  9997
2 43271   0.0104  21.5133 0001392  56.0077 295.4709  1.00272339 29935
HYLAS 4                 
1 43272U 18033B   26155.62978063 -.00000221  00000+0  00000+0 0  9997
2 43272   0.0265  66.4829 0001512  15.5821   4.2782  1.00271591 29942
IRNSS-1I                
1 43286U 18035A   26154.86296579  .00000083  00000+0  00000+0 0  9999
2 43286  28.7232  74.4103 0018238 238.1364 305.5602  1.00268957 29940
USA 283                 
1 43339U 18036A   26155.44904296  .00000000  00000+0  00000+0 0  9995
2 43339   0.0148 344.8211 0000547 104.8728  98.9470  1.00268935 25161
COSMOS 2526             
1 43432U 18037A   26155.30523252 -.00000333  00000+0  00000+0 0  9994
2 43432   0.0206  11.6229 0000642 239.0908 239.9729  1.00268408 29832
APSTAR-6C               
1 43450U 18041A   26155.85322466 -.00000306  00000+0  00000+0 0  9993
2 43450   0.0321 316.1439 0001131  57.2075 321.0883  1.00269696 29682
BANGABANDHUSAT-1        
1 43463U 18044A   26155.73123666 -.00000350  00000+0  00000+0 0  9997
2 43463   0.0294  80.1424 0002023 353.1889 202.1772  1.00269452 29584
SES-12                  
1 43488U 18049A   26155.90025259 -.00000258  00000+0  00000+0 0  9994
2 43488   0.0309  48.8755 0000820 262.7686   0.7958  1.00272363 29290
FENGYUN 2H              
1 43491U 18050A   26155.93731231 -.00000119  00000+0  00000+0 0  9993
2 43491   2.9999  79.2130 0001426 126.7650 104.2880  1.00271936 29310
BEIDOU-2 IGSO-7         
1 43539U 18057A   26155.94337902 -.00000001  00000+0  00000+0 0  9991
2 43539  55.1930 163.1644 0104564 237.9031 302.7938  1.00255284 29009
TELSTAR 19V             
1 43562U 18059A   26155.69639126 -.00000268  00000+0  00000+0 0  9999
2 43562   0.0098  96.7002 0002773   4.2518 339.8830  1.00272219 29012
TELKOM 4 (MERAH PUTIH)  
1 43587U 18064A   26155.80986248 -.00000332  00000+0  00000+0 0  9997
2 43587   0.0160 293.1908 0001650 167.6030 191.9996  1.00270736 28755
