OBJECT_NAME,OBJECT_ID,EPOCH,MEAN_MOTION,ECCENTRICITY,INCLINATION,RA_OF_ASC_NODE,ARG_OF_PERICENTER,MEAN_ANOMALY,EPHEMERIS_TYPE,CLASSIFICATION_TYPE,NORAD_CAT_ID,ELEMENT_SET_NO,REV_AT_EPOCH,BSTAR,MEAN_MOTION_DOT,MEAN_MOTION_DDOT
HELLAS-SAT 3,2017-040A,2026-06-04T18:01:32.424672,1.00272214,.00049128,0.0495,47.0102,2.1633,153.3974,0,U,42814,999,3268,0,.164E-5,0
GSAT-17,2017-040B,2026-06-04T21:36:21.823776,1.00271289,.00016484,0.0958,88.8455,217.2173,4.8806,0,U,42815,999,3266,0,-.246E-5,0
INTELSAT 35E (IS-35E),2017-041A,2026-06-04T21:57:10.498176,1.00274012,.00019741,0.0160,9.1939,63.7556,115.2079,0,U,42818,999,3269,0,-.226E-5,0
COSMOS 2520,2017-046A,2026-06-04T18:54:38.041920,1.00267672,.00013386,0.0459,86.4379,42.0777,93.4136,0,U,42907,999,3227,0,.149E-5,0
TDRS 13,2017-047A,2026-06-04T22:03:46.864224,1.00272496,.00146794,3.4485,2.4194,104.2298,106.2133,0,U,42915,999,3222,0,-.88E-6,0
QZS-3 (MICHIBIKI-3),2017-048A,2026-06-04T20:28:38.612352,1.00272004,.00028653,0.0602,194.1360,249.1059,244.2516,0,U,42917,999,3213,0,-.336E-5,0
AMAZONAS 5,2017-053A,2026-06-04T16:40:04.589184,1.00274619,.00028235,0.0331,321.4966,68.7114,51.9642,0,U,42934,999,3192,0,-.271E-5,0
ASIASAT 9,2017-057A,2026-06-04T10:43:15.135744,1.00271614,.00023259,0.0040,352.4544,75.0267,108.3279,0,U,42942,999,3173,0,-.348E-5,0
INTELSAT 37E (IS-37E),2017-059A,2026-06-04T22:01:54.543360,1.00272095,.00026046,0.0165,11.3176,78.5822,115.9498,0,U,42950,999,3194,0,-.128E-5,0
BSAT-4A,2017-059B,2026-06-04T17:23:58.943328,1.00270483,.0004492,0.0344,351.3581,75.4748,197.1694,0,U,42951,999,3167,0,-.338E-5,0
QZS-4 (MICHIBIKI-4),2017-062A,2026-06-04T08:56:23.188704,1.00255482,.074483,40.1160,343.6465,271.5298,269.7386,0,U,42965,999,3167,0,-.321E-5,0
SES-11 (ECHOSTAR 105),2017-063A,2026-06-04T21:37:04.925280,1.00271406,.0002872,0.0181,324.8467,119.2314,28.5905,0,U,42967,999,3160,0,-.77E-6,0
KOREASAT 5A,2017-067A,2026-06-04T19:30:59.877792,1.00270254,.00010481,0.0209,297.3361,134.8557,226.9644,0,U,42984,999,3140,0,-.346E-5,0
ALCOMSAT 1,2017-078A,2026-06-04T10:00:56.693376,1.00269830,.00027078,0.0204,42.8693,20.7799,314.6310,0,U,43039,999,3116,0,-.174E-5,0
SBIRS GEO-3 (USA 282),2018-009A,2026-06-04T19:38:57.476256,1.00272870,.00023118,2.1754,11.5033,58.7203,318.3830,0,U,43162,999,3072,0,.14E-5,0
AL YAH 3,2018-012A,2026-06-04T10:02:41.525952,1.00272751,.00043733,1.5186,83.2613,351.2790,308.9049,0,U,43174,999,3071,0,-.143E-5,0
SES-14,2018-012B,2026-06-04T09:54:49.779360,1.00270794,.00012808,0.0211,25.8120,50.2092,278.0489,0,U,43175,999,689,0,-.266E-5,0
GOES 17,2018-022A,2026-06-04T21:41:34.495008,1.00271536,.00007374,0.9062,85.9394,6.9647,36.3448,0,U,43226,999,3030,0,-.17E-5,0
HISPASAT 30W-6,2018-023A,2026-06-04T15:07:52.950144,1.00271231,.00064526,0.0452,40.5622,24.1077,25.3803,0,U,43228,999,3028,0,-.204E-5,0
SUPERBIRD-B3,2018-033A,2026-06-04T21:10:37.461792,1.00272339,.00013927,0.0104,21.5133,56.0077,295.4709,0,U,43271,999,2993,0,-.8E-6,0
HYLAS 4,2018-033B,2026-06-04T15:06:53.046432,1.00271591,.0001512,0.0265,66.4829,15.5821,4.2782,0,U,43272,999,2994,0,-.221E-5,0
IRNSS-1I,2018-035A,2026-06-03T20:42:40.244256,1.00268957,.0018238,28.7232,74.4103,238.1364,305.5602,0,U,43286,999,2994,0,.83E-6,0
USA 283,2018-036A,2026-06-04T10:46:37.311744,1.00268935,.0000547,0.0148,344.8211,104.8728,98.9470,0,U,43339,999,2516,0,0,0
COSMOS 2526,2018-037A,2026-06-04T07:19:32.089728,1.00268408,.00006426,0.0206,11.6229,239.0908,239.9729,0,U,43432,999,2983,0,-.333E-5,0
APSTAR-6C,2018-041A,2026-06-04T20:28:38.610624,1.00269696,.0001131,0.0321,316.1439,57.2075,321.0883,0,U,43450,999,2968,0,-.306E-5,0
BANGABANDHUSAT-1,2018-044A,2026-06-04T17:32:58.847424,1.00269452,.00020237,0.0294,80.1424,353.1889,202.1772,0,U,43463,999,2958,0,-.35E-5,0
SES-12,2018-049A,2026-06-04T21:36:21.823776,1.00272363,.00008201,0.0309,48.8755,262.7686,0.7958,0,U,43488,999,2929,0,-.258E-5,0
FENGYUN 2H,2018-050A,2026-06-04T22:29:43.783584,1.00271936,.00014264,2.9999,79.2130,126.7650,104.2880,0,U,43491,999,2931,0,-.119E-5,0
BEIDOU-2 IGSO-7,2018-057A,2026-06-04T22:38:27.947328,1.00255284,.01045647,55.1930,163.1644,237.9031,302.7938,0,U,43539,999,2900,0,-.1E-7,0
TELSTAR 19V,2018-059A,2026-06-04T16:42:48.204864,1.00272219,.00027731,0.0098,96.7002,4.2518,339.8830,0,U,43562,999,2901,0,-.268E-5,0
TELKOM 4 (MERAH PUTIH),2018-064A,2026-06-04T19:26:12.118272,1.00270736,.00016509,0.0160,293.1908,167.6030,191.9996,0,U,43587,999,2875,0,-.332E-5,0
